[{"OBJECT_NAME":"JILIN-1 GAOFEN 3A","OBJECT_ID":"2019-032C","EPOCH":"2026-03-09T17:53:24.364896","MEAN_MOTION":15.3027131,"ECCENTRICITY":0.00026181,"INCLINATION":44.9746,"RA_OF_ASC_NODE":183.2861,"ARG_OF_PERICENTER":111.29,"MEAN_ANOMALY":248.8263,"EPHEMERIS_TYPE":0,"CLASSIFICATION_TYPE":"U","NORAD_CAT_ID":44312,"ELEMENT_SET_NO":999,"REV_AT_EPOCH":37259,"BSTAR":0.00055381133,"MEAN_MOTION_DOT":0.00016264,"MEAN_MOTION_DDOT":0},{"OBJECT_NAME":"STARLINK-31740","OBJECT_ID":"2024-065N","EPOCH":"2026-03-09T21:19:56.808480","MEAN_MOTION":15.30200881,"ECCENTRICITY":0.0001078,"INCLINATION":53.1598,"RA_OF_ASC_NODE":282.6157,"ARG_OF_PERICENTER":107.9423,"MEAN_ANOMALY":252.1695,"EPHEMERIS_TYPE":0,"CLASSIFICATION_TYPE":"U","NORAD_CAT_ID":59433,"ELEMENT_SET_NO":999,"REV_AT_EPOCH":10893,"BSTAR":7.2502266e-5,"MEAN_MOTION_DOT":1.789e-5,"MEAN_MOTION_DDOT":0}]
